NORAD_CAT_ID,OBJECT_NAME,OBJECT_TYPE,EPOCH,MEAN_MOTION,ECCENTRICITY,INCLINATION,RA_OF_ASC_NODE,ARG_OF_PERICENTER,MEAN_ANOMALY,BSTAR,MEAN_MOTION_DOT,MEAN_MOTION_DDOT,TLE_LINE0,TLE_LINE1,TLE_LINE2,SEMIMAJOR_AXIS,PERIOD,APOGEE,PERIGEE,DECAYED
51893.0,STARLINK-3579,PAYLOAD,2022-11-17 09:14:55,15.08844786,0.0002011,53.2182,23.4194,37.1404,322.9727,9.5856e-05,1.238e-05,0.0,0 STARLINK-3579,1 51893U 22022AT  22321.38536635  .00001238  00000-0  95856-4 0  9994,2 51893  53.2182  23.4194 0002011  37.1404 322.9727 15.08844786 40899,6917.866,95.437,541.122,538.34,0.0
51893.0,STARLINK-3579,PAYLOAD,2022-11-17 10:50:18,15.08844916,0.0001998,53.2184,23.1221,36.6285,323.4843,0.0001404,1.947e-05,0.0,0 STARLINK-3579,1 51893U 22022AT  22321.45160618  .00001947  00000-0  14040-3 0  9998,2 51893  53.2184  23.1221 0001998  36.6285 323.4843 15.08844916 40905,6917.865,95.437,541.113,538.3480000000002,0.0
51893.0,STARLINK-3579,PAYLOAD,2022-11-18 10:41:05,15.08843204,0.0002115,53.219,18.6629,34.5393,325.5736,0.00010236,1.341e-05,0.0,0 STARLINK-3579,1 51893U 22022AT  22322.44520487  .00001341  00000-0  10236-3 0  9993,2 51893  53.2190  18.6629 0002115  34.5393 325.5736 15.08843204 41052,6917.871,95.437,541.1990000000002,538.2719999999998,0.0
51893.0,STARLINK-3579,PAYLOAD,2022-11-19 10:31:52,15.08843323,0.000216,53.2188,14.2019,36.2188,323.895,0.00012353,1.678e-05,0.0,0 STARLINK-3579,1 51893U 22022AT  22323.43880595  .00001678  00000-0  12353-3 0  9997,2 51893  53.2188  14.2019 0002160  36.2188 323.8950 15.08843323 41203,6917.87,95.437,541.229,538.241,0.0
51893.0,STARLINK-3579,PAYLOAD,2022-11-19 20:04:12,15.08836762,0.0002051,53.219,12.4183,43.3746,316.7407,5.1446e-05,5.31e-06,0.0,0 STARLINK-3579,1 51893U 22022AT  22323.83625032  .00000531  00000-0  51446-4 0  9998,2 51893  53.2190  12.4183 0002051  43.3746 316.7407 15.08836762 41269,6917.89,95.438,541.174,538.336,0.0
51893.0,STARLINK-3579,PAYLOAD,2022-11-20 04:01:07,15.08842928,0.0002259,53.2184,10.9303,34.7784,325.3356,8.62e-05,1.084e-05,0.0,0 STARLINK-3579,1 51893U 22022AT  22324.16744698  .00001084  00000-0  86200-4 0  9995,2 51893  53.2184  10.9303 0002259  34.7784 325.3356 15.08842928 41311,6917.871,95.437,541.299,538.174,0.0
51893.0,STARLINK-3579,PAYLOAD,2022-11-20 08:47:16,15.08842678,0.0002171,53.2185,10.0383,39.6358,320.4792,7.866600000000001e-05,9.64e-06,0.0,0 STARLINK-3579,1 51893U 22022AT  22324.36616682  .00000964  00000-0  78666-4 0  9991,2 51893  53.2185  10.0383 0002171  39.6358 320.4792 15.08842678 41340,6917.871999999999,95.437,541.239,538.235,0.0
51893.0,STARLINK-3579,PAYLOAD,2022-11-20 19:54:59,15.08838499,0.0002367,53.2187,7.9566,35.7391,324.3759,1.4866e-05,-5.2e-07,0.0,0 STARLINK-3579,1 51893U 22022AT  22324.82985054 -.00000052  00000-0  14866-4 0  9995,2 51893  53.2187   7.9566 0002367  35.7391 324.3759 15.08838499 41411,6917.885,95.438,541.387,538.113,0.0
51893.0,STARLINK-3579,PAYLOAD,2022-11-21 03:51:55,15.08835648,0.0002364,53.2186,6.4697,38.6016,321.5145,6.779399999999999e-07,-2.78e-06,0.0,0 STARLINK-3579,1 51893U 22022AT  22325.16105421 -.00000278  00000-0  67794-6 0  9995,2 51893  53.2186   6.4697 0002364  38.6016 321.5145 15.08835648 41468,6917.894,95.438,541.394,538.123,0.0
51893.0,STARLINK-3579,PAYLOAD,2022-11-21 10:13:27,15.08834946,0.0002383,53.2184,5.2802,38.1987,321.9174,-4.8359e-06,-3.65e-06,0.0,0 STARLINK-3579,1 51893U 22022AT  22325.42601579 -.00000365  00000-0 -48359-5 0  9992,2 51893  53.2184   5.2802 0002383  38.1987 321.9174 15.08834946 41505,6917.896,95.438,541.409,538.112,0.0
51893.0,STARLINK-3579,PAYLOAD,2022-11-21 19:45:46,15.08836425,0.0002495,53.2194,3.4967,39.0169,321.1002,7.5034e-05,9.06e-06,0.0,0 STARLINK-3579,1 51893U 22022AT  22325.82345395  .00000906  00000-0  75034-4 0  9995,2 51893  53.2194   3.4967 0002495  39.0169 321.1002 15.08836425 41566,6917.891,95.438,541.482,538.03,0.0
51893.0,STARLINK-3579,PAYLOAD,2022-11-22 02:07:18,15.08842856,0.0002423,53.2191,2.3072,37.6673,322.4488,7.659999999999999e-05,9.31e-06,0.0,0 STARLINK-3579,1 51893U 22022AT  22326.08840967  .00000931  00000-0  76600-4 0  9997,2 51893  53.2191   2.3072 0002423  37.6673 322.4488 15.08842856 41605,6917.871999999999,95.437,541.413,538.06,0.0
51893.0,STARLINK-3579,PAYLOAD,2022-11-22 10:04:14,15.08842743,0.0002343,53.2186,0.8211,35.8293,324.2856,7.323300000000001e-05,8.77e-06,0.0,0 STARLINK-3579,1 51893U 22022AT  22326.41960883  .00000877  00000-0  73233-4 0  9992,2 51893  53.2186   0.8211 0002343  35.8293 324.2856 15.08842743 41655,6917.871999999999,95.437,541.3580000000002,538.116,0.0
51893.0,STARLINK-3579,PAYLOAD,2022-11-23 09:55:02,15.08830143,0.0002387,53.2195,356.3609,36.09,324.0253,4.1453e-05,3.71e-06,0.0,0 STARLINK-3579,1 51893U 22022AT  22327.41322048  .00000371  00000-0  41453-4 0  9996,2 51893  53.2195 356.3609 0002387  36.0900 324.0253 15.08830143 41808,6917.911,95.438,541.427,538.124,0.0
51893.0,STARLINK-3579,PAYLOAD,2022-11-23 19:27:20,15.088347699999998,0.0002428,53.2194,354.5772,36.8141,323.3017,3.2335e-05,2.26e-06,0.0,0 STARLINK-3579,1 51893U 22022AT  22327.81065939  .00000226  00000-0  32335-4 0  9991,2 51893  53.2194 354.5772 0002428  36.8141 323.3017 15.08834770 41865,6917.896,95.438,541.441,538.082,0.0
51893.0,STARLINK-3579,PAYLOAD,2022-11-24 01:48:53,15.08838017,0.0002346,53.2191,353.3863,35.3909,324.7239,3.0257e-05,1.93e-06,0.0,0 STARLINK-3579,1 51893U 22022AT  22328.07561755  .00000193  00000-0  30257-4 0  9991,2 51893  53.2191 353.3863 0002346  35.3909 324.7239 15.08838017 41909,6917.886,95.438,541.374,538.129,0.0
51893.0,STARLINK-3579,PAYLOAD,2022-11-24 08:10:25,15.08847152,0.0002447,53.2188,352.1976,36.7089,323.407,4.6113e-05,4.46e-06,0.0,0 STARLINK-3579,1 51893U 22022AT  22328.34057177  .00000446  00000-0  46113-4 0  9998,2 51893  53.2188 352.1976 0002447  36.7089 323.4070 15.08847152 41946,6917.859,95.437,541.4159999999998,538.031,0.0
51893.0,STARLINK-3579,PAYLOAD,2022-11-24 19:18:07,15.08843455,0.0002439,53.2187,350.1158,36.7504,323.3655,0.00010716,1.418e-05,0.0,0 STARLINK-3579,1 51893U 22022AT  22328.80425130  .00001418  00000-0  10716-3 0  9996,2 51893  53.2187 350.1158 0002439  36.7504 323.3655 15.08843455 42017,6917.87,95.437,541.422,538.048,0.0
51893.0,STARLINK-3579,PAYLOAD,2022-11-25 04:50:26,15.08833766,0.0002467,53.2182,348.3318,36.5502,323.5658,7.8191e-05,9.56e-06,0.0,0 STARLINK-3579,1 51893U 22022AT  22329.20169979  .00000956  00000-0  78191-4 0  9995,2 51893  53.2182 348.3318 0002467  36.5502 323.5658 15.08833766 42071,6917.899,95.438,541.471,538.058,0.0
51893.0,STARLINK-3579,PAYLOAD,2022-11-25 11:11:59,15.0883532,0.0002489,53.2191,347.1434,39.2765,320.8408,7.599600000000001e-05,9.21e-06,0.0,0 STARLINK-3579,1 51893U 22022AT  22329.46666059  .00000921  00000-0  75996-4 0  9996,2 51893  53.2191 347.1434 0002489  39.2765 320.8408 15.08835320 42118,6917.895,95.438,541.482,538.038,0.0
51893.0,STARLINK-3579,PAYLOAD,2022-11-26 07:51:59,15.08847162,0.0002587,53.2196,343.2784,38.7264,321.3913,8.352799999999999e-05,1.041e-05,0.0,0 STARLINK-3579,1 51893U 22022AT  22330.32777365  .00001041  00000-0  83528-4 0  9990,2 51893  53.2196 343.2784 0002587  38.7264 321.3913 15.08847162 42243,6917.858,95.437,541.513,537.934,0.0
51893.0,STARLINK-3579,PAYLOAD,2022-11-26 11:02:45,15.088514000000002,0.000249,53.2185,342.6821,39.3871,320.7302,0.00010699,1.415e-05,0.0,0 STARLINK-3579,1 51893U 22022AT  22330.46024962  .00001415  00000-0  10699-3 0  9996,2 51893  53.2185 342.6821 0002490  39.3871 320.7302 15.08851400 42267,6917.846,95.437,541.433,537.988,0.0
51893.0,STARLINK-3579,PAYLOAD,2022-11-27 10:53:33,15.08835513,0.0002492,53.2195,338.2219,39.7304,320.3871,-2.1967e-05,-6.38e-06,0.0,0 STARLINK-3579,1 51893U 22022AT  22331.45386183 -.00000638  00000-0 -21967-4 0  9991,2 51893  53.2195 338.2219 0002492  39.7304 320.3871 15.08835513 42418,6917.894,95.438,541.4830000000002,538.035,0.0
51893.0,STARLINK-3579,PAYLOAD,2022-11-28 17:05:53,15.08840588,0.0002463,53.2189,332.5698,37.4544,322.6620000000001,-1.2882e-06,-3.09e-06,0.0,0 STARLINK-3579,1 51893U 22022AT  22332.71242119 -.00000309  00000-0 -12882-5 0  9993,2 51893  53.2189 332.5698 0002463  37.4544 322.6620 15.08840588 42604,6917.879,95.438,541.447,538.04,0.0
51893.0,STARLINK-3579,PAYLOAD,2022-11-29 01:02:48,15.08855139,0.0002384,53.2182,331.0844,34.8611,325.2537,-0.00016723,-2.95e-05,0.0,0 STARLINK-3579,1 51893U 22022AT  22333.04361784 -.00002950  00000-0 -16723-3 0  9990,2 51893  53.2182 331.0844 0002384  34.8611 325.2537 15.08855139 42651,6917.834,95.437,541.3480000000002,538.05,0.0
51893.0,STARLINK-3579,PAYLOAD,2022-11-29 04:13:34,15.0884135,0.0002428,53.2189,330.4896,38.7579,321.3587,0.0001008,1.316e-05,0.0,0 STARLINK-3579,1 51893U 22022AT  22333.17609887  .00001316  00000-0  10080-3 0  9996,2 51893  53.2189 330.4896 0002428  38.7579 321.3587 15.08841350 42677,6917.876,95.437,541.4209999999998,538.062,0.0
51893.0,STARLINK-3579,PAYLOAD,2022-11-29 16:56:39,15.08844462,0.0002523,53.2183,328.1105,38.9981,321.1193,0.00015671,2.207e-05,0.0,0 STARLINK-3579,1 51893U 22022AT  22333.70601610  .00002207  00000-0  15671-3 0  9992,2 51893  53.2183 328.1105 0002523  38.9981 321.1193 15.08844462 42750,6917.8669999999975,95.437,541.477,537.986,0.0
51893.0,STARLINK-3579,PAYLOAD,2022-11-30 00:53:35,15.08837672,0.0002561,53.2187,326.6232,40.4922,319.6261,0.00017799,2.545e-05,0.0,0 STARLINK-3579,1 51893U 22022AT  22334.03722148  .00002545  00000-0  17799-3 0  9997,2 51893  53.2187 326.6232 0002561  40.4922 319.6261 15.08837672 42802,6917.888000000001,95.438,541.524,537.981,0.0
51893.0,STARLINK-3579,PAYLOAD,2022-11-30 04:04:22,15.08840571,0.0002607,53.2183,326.0286,41.0174,319.1014,0.00018774,2.701e-05,0.0,0 STARLINK-3579,1 51893U 22022AT  22334.16970083  .00002701  00000-0  18774-3 0  9992,2 51893  53.2183 326.0286 0002607  41.0174 319.1014 15.08840571 42823,6917.879,95.438,541.547,537.94,0.0
